ONEWEB-0199             
1 48234U 21031AA  24142.87900837 -.00000358  00000+0 -99928-3 0  9990
2 48234  87.8951  80.1741 0002621  88.2224 271.9206 13.14507992148909
ONEWEB-0203             
1 48235U 21031AB  24142.86949495 -.00000341  00000+0 -95426-3 0  9994
2 48235  87.8958  80.1756 0002264  91.7321 268.4068 13.14502912148918
ONEWEB-0197             
1 48236U 21031AC  24142.84491940 -.00000105  00000+0 -31780-3 0  9991
2 48236  87.8963  80.1888 0001673  75.0185 285.1130 13.14501304148827
ONEWEB-0194             
1 48237U 21031AD  24142.89963647  .00000279  00000+0  71682-3 0  9990
2 48237  87.8962  80.1708 0002049  89.7214 270.4151 13.14501611149003
ONEWEB-0193             
1 48238U 21031AE  24142.83937078 -.00000047  00000+0 -16177-3 0  9997
2 48238  87.8963  80.1908 0002193  83.0635 277.0744 13.14505172148940
ONEWEB-0191             
1 48239U 21031AF  24142.85046791 -.00000164  00000+0 -47677-3 0  9992
2 48239  87.8961  80.1731 0002123  82.8234 277.3137 13.14501043148805
ONEWEB-0195             
1 48240U 21031AG  24142.90359095  .00000137  00000+0  33569-3 0  9997
2 48240  87.8961  80.1618 0002454  74.9463 285.1938 13.14505947148795
ONEWEB-0201             
1 48241U 21031AH  24142.89250247  .00000288  00000+0  74360-3 0  9996
2 48241  87.8963  80.1977 0002147  76.8801 283.2569 13.14503809149023
